STARLINK-36460          
1 67432U 26005AE  26029.50003471 -.02017461  00000+0 -23427-1 0  9995
2 67432  43.0005 103.5369 0001287 286.2526  92.8247 15.64253209  3880
YAOGAN-50 01            
1 67433U 26006A   26029.49386490  .00000385  00000+0  17794-3 0  9995
2 67433 142.0312 265.5360 0000663 270.2504  89.8139 13.83252071  2226
CZ-6A R/B               
1 67434U 26006B   26029.42386602  .00001735  00000+0  20456-3 0  9993
2 67434 142.0436 274.6350 0202891 197.9215 161.4267 14.62283004  2323
HULIANWANG DIGUI-137    
1 67435U 26007A   26029.50081471  .00000083  00000+0  19600-3 0  9994
2 67435  50.0068 231.3303 0000304 291.8237  68.2628 13.86353825  2211
HULIANWANG DIGUI-138    
1 67436U 26007B   26029.50415956  .00000077  00000+0  19218-3 0  9992
2 67436  50.0044 231.3437 0000230 254.9277 105.1594 13.85936433  2210
HULIANWANG DIGUI-139    
1 67437U 26007C   26029.28586699  .00000118  00000+0  22690-3 0  9995
2 67437  50.0013 232.1826 0000518 286.9560  73.1280 13.86146294  2188
HULIANWANG DIGUI-140    
1 67438U 26007D   26029.21784765  .00000108  00000+0  21887-3 0  9999
2 67438  50.0043 232.4940 0000422 288.5053  71.5798 13.85762899  2170
HULIANWANG DIGUI-141    
1 67439U 26007E   26029.49845609  .00000087  00000+0  19839-3 0  9995
2 67439  50.0029 231.3109 0000188 230.0848 130.0032 13.86551024  2217
HULIANWANG DIGUI-142    
1 67440U 26007F   26029.49611451 -.00000105  00000+0  33771-4 0  9997
2 67440  50.0113 231.3156 0000314 270.9241  89.1621 13.86701498  2216
HULIANWANG DIGUI-143    
1 67441U 26007G   26028.84560569  .00000089  00000+0  19914-3 0  9991
2 67441  50.0072 233.8713 0000364 238.4949 121.5913 13.86944964  2128
HULIANWANG DIGUI-144    
1 67442U 26007H   26029.49213486  .00000067  00000+0  17948-3 0  9998
2 67442  50.0082 231.2877 0000414 256.8324 103.2527 13.87093201  2218
HULIANWANG DIGUI-145    
1 67443U 26007J   26029.48954250  .00000093  00000+0  20162-3 0  9990
2 67443  50.0082 231.2743 0000501 299.8390  60.2458 13.87274363  2213
