CCSDS_OMM_VERS = 2.0
CREATION_DATE  = 
ORIGINATOR     = 

OBJECT_NAME    = STARLINK-36460
OBJECT_ID      = 2026-005AE
CENTER_NAME    = EARTH
REF_FRAME      = TEME
TIME_SYSTEM    = UTC
MEAN_ELEMENT_THEORY = SGP/SGP4

EPOCH          = 2026-01-29T12:00:02.998944
MEAN_MOTION    = 15.64253209
ECCENTRICITY   = .0001287
INCLINATION    = 43.0005
RA_OF_ASC_NODE = 103.5369
ARG_OF_PERICENTER = 286.2526
MEAN_ANOMALY   = 92.8247

EPHEMERIS_TYPE = 0
CLASSIFICATION_TYPE = U
NORAD_CAT_ID   = 67432
ELEMENT_SET_NO = 999
REV_AT_EPOCH   = 388
BSTAR          = -.23427E-1
MEAN_MOTION_DOT = -.2017461E-1
MEAN_MOTION_DDOT = 0

CCSDS_OMM_VERS = 2.0
CREATION_DATE  = 
ORIGINATOR     = 

OBJECT_NAME    = YAOGAN-50 01
OBJECT_ID      = 2026-006A
CENTER_NAME    = EARTH
REF_FRAME      = TEME
TIME_SYSTEM    = UTC
MEAN_ELEMENT_THEORY = SGP/SGP4

EPOCH          = 2026-01-29T11:51:09.927360
MEAN_MOTION    = 13.83252071
ECCENTRICITY   = .0000663
INCLINATION    = 142.0312
RA_OF_ASC_NODE = 265.5360
ARG_OF_PERICENTER = 270.2504
MEAN_ANOMALY   = 89.8139

EPHEMERIS_TYPE = 0
CLASSIFICATION_TYPE = U
NORAD_CAT_ID   = 67433
ELEMENT_SET_NO = 999
REV_AT_EPOCH   = 222
BSTAR          = .17794E-3
MEAN_MOTION_DOT = .385E-5
MEAN_MOTION_DDOT = 0

CCSDS_OMM_VERS = 2.0
CREATION_DATE  = 
ORIGINATOR     = 

OBJECT_NAME    = CZ-6A R/B
OBJECT_ID      = 2026-006B
CENTER_NAME    = EARTH
REF_FRAME      = TEME
TIME_SYSTEM    = UTC
MEAN_ELEMENT_THEORY = SGP/SGP4

EPOCH          = 2026-01-29T10:10:22.024128
MEAN_MOTION    = 14.62283004
ECCENTRICITY   = .0202891
INCLINATION    = 142.0436
RA_OF_ASC_NODE = 274.6350
ARG_OF_PERICENTER = 197.9215
MEAN_ANOMALY   = 161.4267

EPHEMERIS_TYPE = 0
CLASSIFICATION_TYPE = U
NORAD_CAT_ID   = 67434
ELEMENT_SET_NO = 999
REV_AT_EPOCH   = 232
BSTAR          = .20456E-3
MEAN_MOTION_DOT = .1735E-4
MEAN_MOTION_DDOT = 0

CCSDS_OMM_VERS = 2.0
CREATION_DATE  = 
ORIGINATOR     = 

OBJECT_NAME    = HULIANWANG DIGUI-137
OBJECT_ID      = 2026-007A
CENTER_NAME    = EARTH
REF_FRAME      = TEME
TIME_SYSTEM    = UTC
MEAN_ELEMENT_THEORY = SGP/SGP4

EPOCH          = 2026-01-29T12:01:10.390944
MEAN_MOTION    = 13.86353825
ECCENTRICITY   = .0000304
INCLINATION    = 50.0068
RA_OF_ASC_NODE = 231.3303
ARG_OF_PERICENTER = 291.8237
MEAN_ANOMALY   = 68.2628

EPHEMERIS_TYPE = 0
CLASSIFICATION_TYPE = U
NORAD_CAT_ID   = 67435
ELEMENT_SET_NO = 999
REV_AT_EPOCH   = 221
BSTAR          = .196E-3
MEAN_MOTION_DOT = .83E-6
MEAN_MOTION_DDOT = 0

CCSDS_OMM_VERS = 2.0
CREATION_DATE  = 
ORIGINATOR     = 

OBJECT_NAME    = HULIANWANG DIGUI-138
OBJECT_ID      = 2026-007B
CENTER_NAME    = EARTH
REF_FRAME      = TEME
TIME_SYSTEM    = UTC
MEAN_ELEMENT_THEORY = SGP/SGP4

EPOCH          = 2026-01-29T12:05:59.385984
MEAN_MOTION    = 13.85936433
ECCENTRICITY   = .000023
INCLINATION    = 50.0044
RA_OF_ASC_NODE = 231.3437
ARG_OF_PERICENTER = 254.9277
MEAN_ANOMALY   = 105.1594

EPHEMERIS_TYPE = 0
CLASSIFICATION_TYPE = U
NORAD_CAT_ID   = 67436
ELEMENT_SET_NO = 999
REV_AT_EPOCH   = 221
BSTAR          = .19218E-3
MEAN_MOTION_DOT = .77E-6
MEAN_MOTION_DDOT = 0

CCSDS_OMM_VERS = 2.0
CREATION_DATE  = 
ORIGINATOR     = 

OBJECT_NAME    = HULIANWANG DIGUI-139
OBJECT_ID      = 2026-007C
CENTER_NAME    = EARTH
REF_FRAME      = TEME
TIME_SYSTEM    = UTC
MEAN_ELEMENT_THEORY = SGP/SGP4

EPOCH          = 2026-01-29T06:51:38.907936
MEAN_MOTION    = 13.86146294
ECCENTRICITY   = .0000518
INCLINATION    = 50.0013
RA_OF_ASC_NODE = 232.1826
ARG_OF_PERICENTER = 286.9560
MEAN_ANOMALY   = 73.1280

EPHEMERIS_TYPE = 0
CLASSIFICATION_TYPE = U
NORAD_CAT_ID   = 67437
ELEMENT_SET_NO = 999
REV_AT_EPOCH   = 218
BSTAR          = .2269E-3
MEAN_MOTION_DOT = .118E-5
MEAN_MOTION_DDOT = 0

CCSDS_OMM_VERS = 2.0
CREATION_DATE  = 
ORIGINATOR     = 

OBJECT_NAME    = HULIANWANG DIGUI-140
OBJECT_ID      = 2026-007D
CENTER_NAME    = EARTH
REF_FRAME      = TEME
TIME_SYSTEM    = UTC
MEAN_ELEMENT_THEORY = SGP/SGP4

EPOCH          = 2026-01-29T05:13:42.036960
MEAN_MOTION    = 13.85762899
ECCENTRICITY   = .0000422
INCLINATION    = 50.0043
RA_OF_ASC_NODE = 232.4940
ARG_OF_PERICENTER = 288.5053
MEAN_ANOMALY   = 71.5798

EPHEMERIS_TYPE = 0
CLASSIFICATION_TYPE = U
NORAD_CAT_ID   = 67438
ELEMENT_SET_NO = 999
REV_AT_EPOCH   = 217
BSTAR          = .21887E-3
MEAN_MOTION_DOT = .108E-5
MEAN_MOTION_DDOT = 0

CCSDS_OMM_VERS = 2.0
CREATION_DATE  = 
ORIGINATOR     = 

OBJECT_NAME    = HULIANWANG DIGUI-141
OBJECT_ID      = 2026-007E
CENTER_NAME    = EARTH
REF_FRAME      = TEME
TIME_SYSTEM    = UTC
MEAN_ELEMENT_THEORY = SGP/SGP4

EPOCH          = 2026-01-29T11:57:46.606176
MEAN_MOTION    = 13.86551024
ECCENTRICITY   = .0000188
INCLINATION    = 50.0029
RA_OF_ASC_NODE = 231.3109
ARG_OF_PERICENTER = 230.0848
MEAN_ANOMALY   = 130.0032

EPHEMERIS_TYPE = 0
CLASSIFICATION_TYPE = U
NORAD_CAT_ID   = 67439
ELEMENT_SET_NO = 999
REV_AT_EPOCH   = 221
BSTAR          = .19839E-3
MEAN_MOTION_DOT = .87E-6
MEAN_MOTION_DDOT = 0

CCSDS_OMM_VERS = 2.0
CREATION_DATE  = 
ORIGINATOR     = 

OBJECT_NAME    = HULIANWANG DIGUI-142
OBJECT_ID      = 2026-007F
CENTER_NAME    = EARTH
REF_FRAME      = TEME
TIME_SYSTEM    = UTC
MEAN_ELEMENT_THEORY = SGP/SGP4

EPOCH          = 2026-01-29T11:54:24.293664
MEAN_MOTION    = 13.86701498
ECCENTRICITY   = .0000314
INCLINATION    = 50.0113
RA_OF_ASC_NODE = 231.3156
ARG_OF_PERICENTER = 270.9241
MEAN_ANOMALY   = 89.1621

EPHEMERIS_TYPE = 0
CLASSIFICATION_TYPE = U
NORAD_CAT_ID   = 67440
ELEMENT_SET_NO = 999
REV_AT_EPOCH   = 221
BSTAR          = .33771E-4
MEAN_MOTION_DOT = -.105E-5
MEAN_MOTION_DDOT = 0

CCSDS_OMM_VERS = 2.0
CREATION_DATE  = 
ORIGINATOR     = 

OBJECT_NAME    = HULIANWANG DIGUI-143
OBJECT_ID      = 2026-007G
CENTER_NAME    = EARTH
REF_FRAME      = TEME
TIME_SYSTEM    = UTC
MEAN_ELEMENT_THEORY = SGP/SGP4

EPOCH          = 2026-01-28T20:17:40.331616
MEAN_MOTION    = 13.86944964
ECCENTRICITY   = .00003643
INCLINATION    = 50.0072
RA_OF_ASC_NODE = 233.8713
ARG_OF_PERICENTER = 238.4949
MEAN_ANOMALY   = 121.5913

EPHEMERIS_TYPE = 0
CLASSIFICATION_TYPE = U
NORAD_CAT_ID   = 67441
ELEMENT_SET_NO = 999
REV_AT_EPOCH   = 212
BSTAR          = .19913893E-3
MEAN_MOTION_DOT = .89E-6
MEAN_MOTION_DDOT = 0

CCSDS_OMM_VERS = 2.0
CREATION_DATE  = 
ORIGINATOR     = 

OBJECT_NAME    = HULIANWANG DIGUI-144
OBJECT_ID      = 2026-007H
CENTER_NAME    = EARTH
REF_FRAME      = TEME
TIME_SYSTEM    = UTC
MEAN_ELEMENT_THEORY = SGP/SGP4

EPOCH          = 2026-01-29T11:48:40.451904
MEAN_MOTION    = 13.87093201
ECCENTRICITY   = .0000414
INCLINATION    = 50.0082
RA_OF_ASC_NODE = 231.2877
ARG_OF_PERICENTER = 256.8324
MEAN_ANOMALY   = 103.2527

EPHEMERIS_TYPE = 0
CLASSIFICATION_TYPE = U
NORAD_CAT_ID   = 67442
ELEMENT_SET_NO = 999
REV_AT_EPOCH   = 221
BSTAR          = .17948E-3
MEAN_MOTION_DOT = .67E-6
MEAN_MOTION_DDOT = 0

CCSDS_OMM_VERS = 2.0
CREATION_DATE  = 
ORIGINATOR     = 

OBJECT_NAME    = HULIANWANG DIGUI-145
OBJECT_ID      = 2026-007J
CENTER_NAME    = EARTH
REF_FRAME      = TEME
TIME_SYSTEM    = UTC
MEAN_ELEMENT_THEORY = SGP/SGP4

EPOCH          = 2026-01-29T11:44:56.472000
MEAN_MOTION    = 13.87274363
ECCENTRICITY   = .0000501
INCLINATION    = 50.0082
RA_OF_ASC_NODE = 231.2743
ARG_OF_PERICENTER = 299.8390
MEAN_ANOMALY   = 60.2458

EPHEMERIS_TYPE = 0
CLASSIFICATION_TYPE = U
NORAD_CAT_ID   = 67443
ELEMENT_SET_NO = 999
REV_AT_EPOCH   = 221
BSTAR          = .20162E-3
MEAN_MOTION_DOT = .93E-6
MEAN_MOTION_DDOT = 0

